[
    {
        "CCSDS_OMM_VERS": "3.0",
        "COMMENT": "GENERATED VIA SPACE-TRACK.ORG API",
        "CREATION_DATE": "2025-05-03T02:26:48",
        "ORIGINATOR": "18 SPCS",
        "OBJECT_NAME": "NAVSTAR 83 (USA 440)",
        "OBJECT_ID": "2024-242A",
        "CENTER_NAME": "EARTH",
        "REF_FRAME": "TEME",
        "TIME_SYSTEM": "UTC",
        "MEAN_ELEMENT_THEORY": "SGP4",
        "EPOCH": "2025-05-02T18:23:38.928192",
        "MEAN_MOTION": "2.00557781",
        "ECCENTRICITY": "0.00053320",
        "INCLINATION": "54.9814",
        "RA_OF_ASC_NODE": "350.8010",
        "ARG_OF_PERICENTER": "341.9897",
        "MEAN_ANOMALY": "199.8917",
        "EPHEMERIS_TYPE": "0",
        "CLASSIFICATION_TYPE": "U",
        "NORAD_CAT_ID": "62339",
        "ELEMENT_SET_NO": "999",
        "REV_AT_EPOCH": "302",
        "BSTAR": "0.00000000000000",
        "MEAN_MOTION_DOT": "-0.00000103",
        "MEAN_MOTION_DDOT": "0.0000000000000",
        "SEMIMAJOR_AXIS": "26560.862",
        "PERIOD": "717.998",
        "APOAPSIS": "20196.889",
        "PERIAPSIS": "20168.565",
        "OBJECT_TYPE": "PAYLOAD",
        "RCS_SIZE": "LARGE",
        "COUNTRY_CODE": "US",
        "LAUNCH_DATE": "2024-12-17",
        "SITE": "AFETR",
        "DECAY_DATE": null,
        "FILE": "4717276",
        "GP_ID": "286728248",
        "TLE_LINE0": "0 NAVSTAR 83 (USA 440)",
        "TLE_LINE1": "1 62339U 24242A   25122.76642278 -.00000103  00000-0  00000-0 0  9996",
        "TLE_LINE2": "2 62339  54.9814 350.8010 0005332 341.9897 199.8917  2.00557781  3021"
    }
]